{
  "type": "FeatureCollection",
  "features": [
    {
      "type": "Feature",
      "properties": {
        "norad_id": 66174,
        "name": "HTV-X1",
        "group": "stations",
        "lat": -42.48532087646172,
        "lon": -44.20720807587221,
        "alt_km": 420.398561522009,
        "timestamp": "2025-12-23T11:34:46.979407+00:00",
        "meta_object_name": "HTV-X1",
        "meta_object_id": "2025-241A",
        "meta_epoch": "2025-12-22T15:58:44.561856",
        "meta_mean_motion": 15.49732869,
        "meta_eccentricity": 0.00031542,
        "meta_inclination": 51.6326,
        "meta_ra_of_asc_node": 93.3232,
        "meta_arg_of_pericenter": 286.8846,
        "meta_mean_anomaly": 73.1797,
        "meta_ephemeris_type": 0,
        "meta_classification_type": "U",
        "meta_norad_cat_id": 66174,
        "meta_element_set_no": 999,
        "meta_rev_at_epoch": 51,
        "meta_bstar": 0.00022188304,
        "meta_mean_motion_dot": 0.0001211,
        "meta_mean_motion_ddot": 0,
        "tle_line1": "1 66174U 25241A   25356.66579354  .00012110  00000+0  22188-3 0  9992",
        "tle_line2": "2 66174  51.6326  93.3232 0003154 286.8846  73.1797 15.49732869   510"
      },
      "geometry": {
        "type": "Point",
        "coordinates": [
          -44.20720807587221,
          -42.48532087646172
        ]
      }
    },
    {
      "type": "Feature",
      "properties": {
        "norad_id": 66515,
        "name": "SZ-21 MODULE",
        "group": "stations",
        "lat": 41.351383735929005,
        "lon": 35.547478679856454,
        "alt_km": 374.2171658234847,
        "timestamp": "2025-12-23T11:34:46.979416+00:00",
        "meta_object_name": "SZ-21 MODULE",
        "meta_object_id": "2025-246C",
        "meta_epoch": "2025-12-22T06:04:32.826144",
        "meta_mean_motion": 15.62957896,
        "meta_eccentricity": 0.00052091,
        "meta_inclination": 41.4776,
        "meta_ra_of_asc_node": 317.9924,
        "meta_arg_of_pericenter": 311.1717,
        "meta_mean_anomaly": 48.8673,
        "meta_ephemeris_type": 0,
        "meta_classification_type": "U",
        "meta_norad_cat_id": 66515,
        "meta_element_set_no": 999,
        "meta_rev_at_epoch": 593,
        "meta_bstar": 0.00031521047,
        "meta_mean_motion_dot": 0.00029176,
        "meta_mean_motion_ddot": 0,
        "tle_line1": "1 66515U 25246C   25356.25315771  .00029176  00000+0  31521-3 0  9993",
        "tle_line2": "2 66515  41.4776 317.9924 0005209 311.1717  48.8673 15.62957896  5937"
      },
      "geometry": {
        "type": "Point",
        "coordinates": [
          35.547478679856454,
          41.351383735929005
        ]
      }
    },
    {
      "type": "Feature",
      "properties": {
        "norad_id": 66645,
        "name": "SHENZHOU-22",
        "group": "stations",
        "lat": 29.292497825868946,
        "lon": -9.094931159101064,
        "alt_km": 382.7505520267541,
        "timestamp": "2025-12-23T11:34:46.979425+00:00",
        "meta_object_name": "SHENZHOU-22",
        "meta_object_id": "2025-272A",
        "meta_epoch": "2025-12-22T20:00:27.776448",
        "meta_mean_motion": 15.59577421,
        "meta_eccentricity": 0.00078985,
        "meta_inclination": 41.4686,
        "meta_ra_of_asc_node": 315.409,
        "meta_arg_of_pericenter": 119.6774,
        "meta_mean_anomaly": 240.4851,
        "meta_ephemeris_type": 0,
        "meta_classification_type": "U",
        "meta_norad_cat_id": 66645,
        "meta_element_set_no": 999,
        "meta_rev_at_epoch": 26550,
        "meta_bstar": 0.00020454,
        "meta_mean_motion_dot": 0.00016458,
        "meta_mean_motion_ddot": 0,
        "tle_line1": "1 66645U 25272A   25356.83365482  .00016458  00000+0  20454-3 0  9996",
        "tle_line2": "2 66645  41.4686 315.4090 0007898 119.6774 240.4851 15.59577421265505"
      },
      "geometry": {
        "type": "Point",
        "coordinates": [
          -9.094931159101064,
          29.292497825868946
        ]
      }
    },
    {
      "type": "Feature",
      "properties": {
        "norad_id": 66664,
        "name": "SOYUZ-MS 28",
        "group": "stations",
        "lat": -42.48535189467773,
        "lon": -44.20714246368071,
        "alt_km": 420.3985611053431,
        "timestamp": "2025-12-23T11:34:46.979434+00:00",
        "meta_object_name": "SOYUZ-MS 28",
        "meta_object_id": "2025-275A",
        "meta_epoch": "2025-12-22T15:58:44.560992",
        "meta_mean_motion": 15.49732869,
        "meta_eccentricity": 0.0003154,
        "meta_inclination": 51.6326,
        "meta_ra_of_asc_node": 93.3232,
        "meta_arg_of_pericenter": 286.8846,
        "meta_mean_anomaly": 73.1797,
        "meta_ephemeris_type": 0,
        "meta_classification_type": "U",
        "meta_norad_cat_id": 66664,
        "meta_element_set_no": 999,
        "meta_rev_at_epoch": 398,
        "meta_bstar": 0.00022188,
        "meta_mean_motion_dot": 0.0001211,
        "meta_mean_motion_ddot": 0,
        "tle_line1": "1 66664U 25275A   25356.66579353  .00012110  00000+0  22188-3 0  9992",
        "tle_line2": "2 66664  51.6326  93.3232 0003154 286.8846  73.1797 15.49732869  3988"
      },
      "geometry": {
        "type": "Point",
        "coordinates": [
          -44.20714246368071,
          -42.48535189467773
        ]
      }
    },
    {
      "type": "Feature",
      "properties": {
        "norad_id": 66906,
        "name": "1998-067XS",
        "group": "stations",
        "lat": -33.24969460557452,
        "lon": 57.82477587074458,
        "alt_km": 416.32908674446116,
        "timestamp": "2025-12-23T11:34:46.979443+00:00",
        "meta_object_name": "1998-067XS",
        "meta_object_id": "1998-067XS",
        "meta_epoch": "2025-12-22T11:01:48.942336",
        "meta_mean_motion": 15.51071617,
        "meta_eccentricity": 0.00028954,
        "meta_inclination": 51.6319,
        "meta_ra_of_asc_node": 94.197,
        "meta_arg_of_pericenter": 250.8689,
        "meta_mean_anomaly": 109.1987,
        "meta_ephemeris_type": 0,
        "meta_classification_type": "U",
        "meta_norad_cat_id": 66906,
        "meta_element_set_no": 999,
        "meta_rev_at_epoch": 312,
        "meta_bstar": 0.00051361561,
        "meta_mean_motion_dot": 0.00030106,
        "meta_mean_motion_ddot": 0,
        "tle_line1": "1 66906U 98067XS  25356.45959424  .00030106  00000+0  51362-3 0  9999",
        "tle_line2": "2 66906  51.6319  94.1970 0002895 250.8689 109.1987 15.51071617  3121"
      },
      "geometry": {
        "type": "Point",
        "coordinates": [
          57.82477587074458,
          -33.24969460557452
        ]
      }
    },
    {
      "type": "Feature",
      "properties": {
        "norad_id": 66907,
        "name": "1998-067XT",
        "group": "stations",
        "lat": 14.972091707117247,
        "lon": 101.21767365976707,
        "alt_km": 407.2627226992945,
        "timestamp": "2025-12-23T11:34:46.979453+00:00",
        "meta_object_name": "1998-067XT",
        "meta_object_id": "1998-067XT",
        "meta_epoch": "2025-12-22T07:41:32.890848",
        "meta_mean_motion": 15.52583192,
        "meta_eccentricity": 0.00038425,
        "meta_inclination": 51.6311,
        "meta_ra_of_asc_node": 94.7687,
        "meta_arg_of_pericenter": 286.1212,
        "meta_mean_anomaly": 73.9355,
        "meta_ephemeris_type": 0,
        "meta_classification_type": "U",
        "meta_norad_cat_id": 66907,
        "meta_element_set_no": 999,
        "meta_rev_at_epoch": 310,
        "meta_bstar": 0.0011084243,
        "meta_mean_motion_dot": 0.00069527,
        "meta_mean_motion_ddot": 0,
        "tle_line1": "1 66907U 98067XT  25356.32051957  .00069527  00000+0  11084-2 0  9995",
        "tle_line2": "2 66907  51.6311  94.7687 0003842 286.1212  73.9355 15.52583192  3104"
      },
      "geometry": {
        "type": "Point",
        "coordinates": [
          101.21767365976707,
          14.972091707117247
        ]
      }
    },
    {
      "type": "Feature",
      "properties": {
        "norad_id": 66908,
        "name": "1998-067XU",
        "group": "stations",
        "lat": 19.15088438424929,
        "lon": 104.94336478866472,
        "alt_km": 406.73891350760096,
        "timestamp": "2025-12-23T11:34:46.979462+00:00",
        "meta_object_name": "1998-067XU",
        "meta_object_id": "1998-067XU",
        "meta_epoch": "2025-12-22T12:18:16.541280",
        "meta_mean_motion": 15.52707663,
        "meta_eccentricity": 0.00038713,
        "meta_inclination": 51.631,
        "meta_ra_of_asc_node": 93.8007,
        "meta_arg_of_pericenter": 283.9304,
        "meta_mean_anomaly": 76.1255,
        "meta_ephemeris_type": 0,
        "meta_classification_type": "U",
        "meta_norad_cat_id": 66908,
        "meta_element_set_no": 999,
        "meta_rev_at_epoch": 313,
        "meta_bstar": 0.0010107547,
        "meta_mean_motion_dot": 0.00063598,
        "meta_mean_motion_ddot": 0,
        "tle_line1": "1 66908U 98067XU  25356.51269145  .00063598  00000+0  10108-2 0  9995",
        "tle_line2": "2 66908  51.6310  93.8007 0003871 283.9304  76.1255 15.52707663  3137"
      },
      "geometry": {
        "type": "Point",
        "coordinates": [
          104.94336478866472,
          19.15088438424929
        ]
      }
    }
  ]
}